NORAD_CAT_ID,OBJECT_NAME,OBJECT_TYPE,EPOCH,MEAN_MOTION,ECCENTRICITY,INCLINATION,RA_OF_ASC_NODE,ARG_OF_PERICENTER,MEAN_ANOMALY,BSTAR,MEAN_MOTION_DOT,MEAN_MOTION_DDOT,TLE_LINE0,TLE_LINE1,TLE_LINE2,SEMIMAJOR_AXIS,PERIOD,APOGEE,PERIGEE,DECAYED
51807.0,STARLINK-3606,PAYLOAD,2023-06-04 01:47:00,15.08836235,9.93e-05,53.2157,191.4586,92.9837,267.1268,4.7613e-05,4.7e-06,0.0,0 STARLINK-3606,1 51807U 22017AR  23155.07431583  .00000470  00000-0  47613-4 0  9996,2 51807  53.2157 191.4586 0000993  92.9837 267.1268 15.08836235 71695,6917.892,95.438,540.444,539.07,0.0
51807.0,STARLINK-3606,PAYLOAD,2023-06-04 12:54:42,15.08838742,9.92e-05,53.2159,189.3775,92.7878,267.3228,6.093e-05,6.82e-06,0.0,0 STARLINK-3606,1 51807U 22017AR  23155.53799461  .00000682  00000-0  60930-4 0  9991,2 51807  53.2159 189.3775 0000992  92.7878 267.3228 15.08838742 71766,6917.884,95.438,540.435,539.063,0.0
51807.0,STARLINK-3606,PAYLOAD,2023-06-04 19:16:15,15.08837303,9.68e-05,53.2158,188.188,86.3393,273.771,6.1657e-05,6.94e-06,0.0,0 STARLINK-3606,1 51807U 22017AR  23155.80295590  .00000694  00000-0  61657-4 0  9995,2 51807  53.2158 188.1880 0000968  86.3393 273.7710 15.08837303 71807,6917.889,95.438,540.423,539.084,0.0
51807.0,STARLINK-3606,PAYLOAD,2023-06-05 09:34:43,15.08836431,9.62e-05,53.2157,185.5115,84.3623,275.7479,6.7367e-05,7.84e-06,0.0,0 STARLINK-3606,1 51807U 22017AR  23156.39911772  .00000784  00000-0  67367-4 0  9991,2 51807  53.2157 185.5115 0000962  84.3623 275.7479 15.08836431 71890,6917.891,95.438,540.422,539.091,0.0
51807.0,STARLINK-3606,PAYLOAD,2023-06-05 11:10:06,15.08837602,9.68e-05,53.2159,185.2142,84.4886,275.6216,7.0311e-05,8.31e-06,0.0,0 STARLINK-3606,1 51807U 22017AR  23156.46535719  .00000831  00000-0  70311-4 0  9998,2 51807  53.2159 185.2142 0000968  84.4886 275.6216 15.08837602 71908,6917.888,95.438,540.422,539.083,0.0
51807.0,STARLINK-3606,PAYLOAD,2023-06-06 11:00:53,15.08842123,9.76e-05,53.2158,180.7539,83.3842,276.7261,4.5457e-05,4.36e-06,0.0,0 STARLINK-3606,1 51807U 22017AR  23157.45895539  .00000436  00000-0  45457-4 0  9991,2 51807  53.2158 180.7539 0000976  83.3842 276.7261 15.08842123 72059,6917.874,95.437,540.414,539.064,0.0
51807.0,STARLINK-3606,PAYLOAD,2023-06-07 07:40:54,15.088424,9.68e-05,53.2158,176.8882,82.89,277.2202,5.8544e-05,6.44e-06,0.0,0 STARLINK-3606,1 51807U 22017AR  23158.32007377  .00000644  00000-0  58544-4 0  9995,2 51807  53.2158 176.8882 0000968  82.8900 277.2202 15.08842400 72189,6917.873,95.437,540.408,539.068,0.0
51807.0,STARLINK-3606,PAYLOAD,2023-06-07 23:34:45,15.08840247,9.62e-05,53.2155,173.9148,81.1982,278.9119,3.2416e-05,2.28e-06,0.0,0 STARLINK-3606,1 51807U 22017AR  23158.98247530  .00000228  00000-0  32416-4 0  9992,2 51807  53.2155 173.9148 0000962  81.1982 278.9119 15.08840247 72288,6917.88,95.438,540.41,539.079,0.0
51807.0,STARLINK-3606,PAYLOAD,2023-06-08 07:31:41,15.08840086,9.55e-05,53.2155,172.4279,82.9728,277.1373,2.6295e-05,1.31e-06,0.0,0 STARLINK-3606,1 51807U 22017AR  23159.31367534  .00000131  00000-0  26295-4 0  9998,2 51807  53.2155 172.4279 0000955  82.9728 277.1373 15.08840086 72336,6917.88,95.438,540.406,539.084,0.0
51807.0,STARLINK-3606,PAYLOAD,2023-06-09 01:00:56,15.08838607,9.6e-05,53.2154,169.1569,83.6022,276.5079,1.0318e-06,-2.71e-06,0.0,0 STARLINK-3606,1 51807U 22017AR  23160.04231715 -.00000271  00000-0  10318-5 0  9997,2 51807  53.2154 169.1569 0000960  83.6022 276.5079 15.08838607 72445,6917.885,95.438,540.414,539.086,0.0
51807.0,STARLINK-3606,PAYLOAD,2023-06-09 07:22:28,15.08838319,9.62e-05,53.2154,167.9673,83.8169,276.2933,-1.481e-06,-3.11e-06,0.0,0 STARLINK-3606,1 51807U 22017AR  23160.30727759 -.00000311  00000-0 -14810-5 0  9991,2 51807  53.2154 167.9673 0000962  83.8169 276.2933 15.08838319 72483,6917.886,95.438,540.416,539.085,0.0
51807.0,STARLINK-3606,PAYLOAD,2023-06-09 16:54:47,15.08836746,9.55e-05,53.2154,166.1832,82.5871,277.523,2.0492e-06,-2.55e-06,0.0,0 STARLINK-3606,1 51807U 22017AR  23160.70471897 -.00000255  00000-0  20492-5 0  9993,2 51807  53.2154 166.1832 0000955  82.5871 277.5230 15.08836746 72542,6917.89,95.438,540.416,539.095,0.0
51807.0,STARLINK-3606,PAYLOAD,2023-06-10 02:27:06,15.08835626,9.54e-05,53.2156,164.3992,82.9799,277.1302,2.1691e-05,5.7e-07,0.0,0 STARLINK-3606,1 51807U 22017AR  23161.10216002  .00000057  00000-0  21691-4 0  9993,2 51807  53.2156 164.3992 0000954  82.9799 277.1302 15.08835626 72602,6917.894,95.438,540.419,539.099,0.0
51807.0,STARLINK-3606,PAYLOAD,2023-06-10 07:13:15,15.08836769,9.59e-05,53.2156,163.5071,82.5601,277.55,3.0266e-05,1.94e-06,0.0,0 STARLINK-3606,1 51807U 22017AR  23161.30087954  .00000194  00000-0  30266-4 0  9997,2 51807  53.2156 163.5071 0000959  82.5601 277.5500 15.08836769 72630,6917.89,95.438,540.419,539.092,0.0
51807.0,STARLINK-3606,PAYLOAD,2023-06-10 19:56:21,15.08835283,9.6e-05,53.2156,161.1282,81.3063,278.8038,4.1148e-05,3.67e-06,0.0,0 STARLINK-3606,1 51807U 22017AR  23161.83080133  .00000367  00000-0  41148-4 0  9990,2 51807  53.2156 161.1282 0000960  81.3063 278.8038 15.08835283 72718,6917.895,95.438,540.424,539.096,0.0
51807.0,STARLINK-3606,PAYLOAD,2023-06-11 10:14:49,15.08838227,9.75e-05,53.2156,158.4517,80.6588,279.4515,5.8653e-05,6.46e-06,0.0,0 STARLINK-3606,1 51807U 22017AR  23162.42696051  .00000646  00000-0  58653-4 0  9997,2 51807  53.2156 158.4517 0000975  80.6588 279.4515 15.08838227 72806,6917.886,95.438,540.425,539.076,0.0
51807.0,STARLINK-3606,PAYLOAD,2023-06-11 16:36:22,15.08836472,9.81e-05,53.2155,157.2622,81.0739,279.0364,4.4418e-05,4.19e-06,0.0,0 STARLINK-3606,1 51807U 22017AR  23162.69192261  .00000419  00000-0  44418-4 0  9992,2 51807  53.2155 157.2622 0000981  81.0739 279.0364 15.08836472 72841,6917.891,95.438,540.435,539.078,0.0
51807.0,STARLINK-3606,PAYLOAD,2023-06-12 16:27:09,15.08838477,9.68e-05,53.2156,152.8015,86.2084,273.9018,4.5721e-05,4.4e-06,0.0,0 STARLINK-3606,1 51807U 22017AR  23163.68552240  .00000440  00000-0  45721-4 0  9991,2 51807  53.2156 152.8015 0000968  86.2084 273.9018 15.08838477 72996,6917.885,95.438,540.42,539.08,0.0
51807.0,STARLINK-3606,PAYLOAD,2023-06-12 22:48:41,15.08836998,9.98e-05,53.2155,151.6122,86.7881,273.3226,3.2715e-05,2.33e-06,0.0,0 STARLINK-3606,1 51807U 22017AR  23163.95048428  .00000233  00000-0  32715-4 0  9998,2 51807  53.2155 151.6122 0000998  86.7881 273.3226 15.08836998 73031,6917.89,95.438,540.445,539.064,0.0
51807.0,STARLINK-3606,PAYLOAD,2023-06-13 08:21:00,15.08838489,0.0001004,53.2154,149.828,85.7738,274.3369,2.7514e-05,1.5e-06,0.0,0 STARLINK-3606,1 51807U 22017AR  23164.34792380  .00000150  00000-0  27514-4 0  9994,2 51807  53.2154 149.8280 0001004  85.7738 274.3369 15.08838489 73095,6917.885,95.438,540.445,539.055,0.0
51807.0,STARLINK-3606,PAYLOAD,2023-06-14 08:11:47,15.08842127,0.0001125,53.2165,145.3675,83.6599,276.4522,5.3661e-05,5.66e-06,0.0,0 STARLINK-3606,1 51807U 22017AR  23165.34152070  .00000566  00000-0  53661-4 0  9994,2 51807  53.2165 145.3675 0001125  83.6599 276.4522 15.08842127 73247,6917.874,95.437,540.517,538.961,0.0
51807.0,STARLINK-3606,PAYLOAD,2023-06-14 16:08:43,15.08840226,0.0001113,53.2165,143.8807,83.2298,276.882,4.1016e-05,3.65e-06,0.0,0 STARLINK-3606,1 51807U 22017AR  23165.67272202  .00000365  00000-0  41016-4 0  9998,2 51807  53.2165 143.8807 0001113  83.2298 276.8820 15.08840226 73294,6917.88,95.438,540.515,538.975,0.0
51807.0,STARLINK-3606,PAYLOAD,2023-06-15 08:02:34,15.08838037,0.0001077,53.216,140.9063,94.2436,265.868,2.2742e-05,7.4e-07,0.0,0 STARLINK-3606,1 51807U 22017AR  23166.33512408  .00000074  00000-0  22742-4 0  9999,2 51807  53.2160 140.9063 0001077  94.2436 265.8680 15.08838037 73396,6917.886,95.438,540.496,539.006,0.0
51807.0,STARLINK-3606,PAYLOAD,2023-06-16 07:53:21,15.0884495,0.0001131,53.2157,136.446,93.3203,266.7919,5.3942e-05,5.71e-06,0.0,0 STARLINK-3606,1 51807U 22017AR  23167.32871863  .00000571  00000-0  53942-4 0  9990,2 51807  53.2157 136.4460 0001131  93.3203 266.7919 15.08844950 73549,6917.865,95.437,540.513,538.948,0.0
51807.0,STARLINK-3606,PAYLOAD,2023-06-17 06:08:45,15.08841245,0.0001133,53.2162,132.2858,88.0021,272.1101,4.3259e-06,-2.19e-06,0.0,0 STARLINK-3606,1 51807U 22017AR  23168.25608358 -.00000219  00000-0  43259-5 0  9991,2 51807  53.2162 132.2858 0001133  88.0021 272.1101 15.08841245 73684,6917.877,95.437,540.525,538.958,0.0
51807.0,STARLINK-3606,PAYLOAD,2023-06-17 14:05:41,15.08832392,0.0001096,53.2155,130.7969,85.0978,275.014,-1.6101e-05,-5.44e-06,0.0,0 STARLINK-3606,1 51807U 22017AR  23168.58729009 -.00000544  00000-0 -16101-4 0  9991,2 51807  53.2155 130.7969 0001096  85.0978 275.0140 15.08832392 73732,6917.904,95.438,540.527,539.01,0.0
51807.0,STARLINK-3606,PAYLOAD,2023-06-17 22:02:38,15.08829217,0.0002138,53.2163,129.3089,83.7114,276.4121,-7.667e-05,-1.508e-05,0.0,0 STARLINK-3606,1 51807U 22017AR  23168.91849995 -.00001508  00000-0 -76670-4 0  9993,2 51807  53.2163 129.3089 0002138  83.7114 276.4121 15.08829217 73784,6917.913,95.438,541.257,538.299,0.0
51807.0,STARLINK-3606,PAYLOAD,2023-06-18 04:24:13,15.08802635,6.65e-05,53.2163,128.1191,73.1819,286.9246,-0.00027679,-4.685e-05,0.0,0 STARLINK-3606,1 51807U 22017AR  23169.18348511 -.00004685  00000-0 -27679-3 0  9994,2 51807  53.2163 128.1191 0000665  73.1819 286.9246 15.08802635 73827,6917.995,95.44,540.32,539.4,0.0
51807.0,STARLINK-3606,PAYLOAD,2023-06-18 13:56:30,15.08823111,0.0001195,53.2169,126.3384,98.4326,261.6802,-5.8464e-05,-1.218e-05,0.0,0 STARLINK-3606,1 51807U 22017AR  23169.58091077 -.00001218  00000-0 -58464-4 0  9996,2 51807  53.2169 126.3384 0001195  98.4326 261.6802 15.08823111 73885,6917.932,95.439,540.624,538.97,0.0
51807.0,STARLINK-3606,PAYLOAD,2023-06-19 05:50:21,15.08834542,0.0001118,53.2159,123.3624,88.792,271.32,5.8012e-05,6.35e-06,0.0,0 STARLINK-3606,1 51807U 22017AR  23170.24330573  .00000635  00000-0  58012-4 0  9997,2 51807  53.2159 123.3624 0001118  88.7920 271.3200 15.08834542 73986,6917.897,95.438,540.535,538.989,0.0
